start=new Date('2023-05-11T00:00:00.000Z').valueOf();
sats=[{"GP_ID":"231569447","MEAN_MOTION_DDOT":"0.0000000000000","OBJECT_ID":"2022-125A","REF_FRAME":"TEME","RCS_SIZE":"LARGE","RA_OF_ASC_NODE":"185.4041","CLASSIFICATION_TYPE":"U","NORAD_CAT_ID":"53964","MEAN_MOTION_DOT":"0.00000313","TIME_SYSTEM":"UTC","TLE_LINE1":"1 53964U 22125A   23130.83919868  .00000313  00000-0  37775-4 0  9990","APOAPSIS":"540.594","COUNTRY_CODE":"US","OBJECT_TYPE":"PAYLOAD","CENTER_NAME":"EARTH","FILE":"3904830","ARG_OF_PERICENTER":"55.7176","SEMIMAJOR_AXIS":"6917.855","OBJECT_NAME":"STARLINK-4633","ECCENTRICITY":"0.00012630","PERIAPSIS":"538.846","EPHEMERIS_TYPE":"0","LAUNCH_DATE":"2022-10-05","EPOCH":"2023-05-10T20:08:26.765952","ELEMENT_SET_NO":"999","MEAN_ANOMALY":"304.3936","DECAY_DATE":null,"MEAN_ELEMENT_THEORY":"SGP4","SITE":"AFWTR","INCLINATION":"53.2146","BSTAR":"0.00003777500000","MEAN_MOTION":"15.08848249","PERIOD":"95.437","REV_AT_EPOCH":"3324","TLE_LINE2":"2 53964  53.2146 185.4041 0001263  55.7176 304.3936 15.08848249 33245"},{"INCLINATION":"53.2149","BSTAR":"0.00030886000000","PERIOD":"95.437","MEAN_MOTION":"15.08845949","TLE_LINE2":"2 53965  53.2149 186.8802 0001346  91.6860 268.4287 15.08845949 33197","REV_AT_EPOCH":"3319","MEAN_ELEMENT_THEORY":"SGP4","DECAY_DATE":null,"MEAN_ANOMALY":"268.4287","SITE":"AFWTR","EPHEMERIS_TYPE":"0","LAUNCH_DATE":"2022-10-05","EPOCH":"2023-05-10T12:07:36.239520","ELEMENT_SET_NO":"999","ARG_OF_PERICENTER":"91.6860","SEMIMAJOR_AXIS":"6917.862","OBJECT_NAME":"STARLINK-4578","ECCENTRICITY":"0.00013460","PERIAPSIS":"538.796","APOAPSIS":"540.658","TLE_LINE1":"1 53965U 22125B   23130.50528055  .00004632  00000-0  30886-3 0  9992","CENTER_NAME":"EARTH","OBJECT_TYPE":"PAYLOAD","COUNTRY_CODE":"US","FILE":"3904555","CLASSIFICATION_TYPE":"U","RA_OF_ASC_NODE":"186.8802","MEAN_MOTION_DOT":"0.00004632","NORAD_CAT_ID":"53965","TIME_SYSTEM":"UTC","MEAN_MOTION_DDOT":"0.0000000000000","GP_ID":"231536317","REF_FRAME":"TEME","OBJECT_ID":"2022-125B","RCS_SIZE":"LARGE"},{"COUNTRY_CODE":"US","OBJECT_TYPE":"PAYLOAD","CENTER_NAME":"EARTH","TLE_LINE1":"1 53966U 22125C   23130.56687512  .00002256  00000-0  15978-3 0  9998","APOAPSIS":"540.556","FILE":"3904830","OBJECT_ID":"2022-125C","REF_FRAME":"TEME","GP_ID":"231570450","MEAN_MOTION_DDOT":"0.0000000000000","RCS_SIZE":"LARGE","RA_OF_ASC_NODE":"186.5542","CLASSIFICATION_TYPE":"U","TIME_SYSTEM":"UTC","NORAD_CAT_ID":"53966","MEAN_MOTION_DOT":"0.00002256","SITE":"AFWTR","DECAY_DATE":null,"MEAN_ANOMALY":"267.6166","MEAN_ELEMENT_THEORY":"SGP4","BSTAR":"0.00015978000000","INCLINATION":"53.2146","REV_AT_EPOCH":"3320","TLE_LINE2":"2 53966  53.2146 186.5542 0001201  92.4964 267.6166 15.08846516 33207","MEAN_MOTION":"15.08846516","PERIOD":"95.437","OBJECT_NAME":"STARLINK-4635","SEMIMAJOR_AXIS":"6917.860","ECCENTRICITY":"0.00012010","ARG_OF_PERICENTER":"92.4964","PERIAPSIS":"538.895","LAUNCH_DATE":"2022-10-05","EPHEMERIS_TYPE":"0","ELEMENT_SET_NO":"999","EPOCH":"2023-05-10T13:36:18.010368"},{"NORAD_CAT_ID":"53967","MEAN_MOTION_DOT":"0.00004925","TIME_SYSTEM":"UTC","RA_OF_ASC_NODE":"187.1253","CLASSIFICATION_TYPE":"U","RCS_SIZE":"LARGE","GP_ID":"231538463","MEAN_MOTION_DDOT":"0.0000000000000","OBJECT_ID":"2022-125D","REF_FRAME":"TEME","FILE":"3904576","TLE_LINE1":"1 53967U 22125D   23130.43070412  .00004925  00000-0  32716-3 0  9994","APOAPSIS":"540.620","COUNTRY_CODE":"US","OBJECT_TYPE":"PAYLOAD","CENTER_NAME":"EARTH","EPOCH":"2023-05-10T10:20:12.835968","ELEMENT_SET_NO":"999","EPHEMERIS_TYPE":"0","LAUNCH_DATE":"2022-10-05","PERIAPSIS":"538.778","ARG_OF_PERICENTER":"125.3712","SEMIMAJOR_AXIS":"6917.834","ECCENTRICITY":"0.00013320","OBJECT_NAME":"STARLINK-4634","MEAN_MOTION":"15.08855167","PERIOD":"95.437","REV_AT_EPOCH":"3325","TLE_LINE2":"2 53967  53.2140 187.1253 0001332 125.3712 234.7405 15.08855167 33258","INCLINATION":"53.2140","BSTAR":"0.00032716000000","DECAY_DATE":null,"MEAN_ANOMALY":"234.7405","MEAN_ELEMENT_THEORY":"SGP4","SITE":"AFWTR"},{"APOAPSIS":"540.791","TLE_LINE1":"1 53968U 22125E   23130.88334228  .00008087  00000-0  52547-3 0  9999","CENTER_NAME":"EARTH","OBJECT_TYPE":"PAYLOAD","COUNTRY_CODE":"US","FILE":"3904830","CLASSIFICATION_TYPE":"U","RA_OF_ASC_NODE":"184.9790","MEAN_MOTION_DOT":"0.00008087","NORAD_CAT_ID":"53968","TIME_SYSTEM":"UTC","MEAN_MOTION_DDOT":"0.0000000000000","GP_ID":"231568947","REF_FRAME":"TEME","OBJECT_ID":"2022-125E","RCS_SIZE":"LARGE","INCLINATION":"53.2140","BSTAR":"0.00052547000000","PERIOD":"95.437","MEAN_MOTION":"15.08851114","TLE_LINE2":"2 53968  53.2140 184.9790 0001560  77.4633 282.6533 15.08851114 33254","REV_AT_EPOCH":"3325","MEAN_ELEMENT_THEORY":"SGP4","DECAY_DATE":null,"MEAN_ANOMALY":"282.6533","SITE":"AFWTR","EPHEMERIS_TYPE":"0","LAUNCH_DATE":"2022-10-05","EPOCH":"2023-05-10T21:12:00.772992","ELEMENT_SET_NO":"999","ARG_OF_PERICENTER":"77.4633","SEMIMAJOR_AXIS":"6917.846","OBJECT_NAME":"STARLINK-4629","ECCENTRICITY":"0.00015600","PERIAPSIS":"538.632"},{"SITE":"AFWTR","MEAN_ELEMENT_THEORY":"SGP4","DECAY_DATE":null,"MEAN_ANOMALY":"273.0075","BSTAR":"0.00018054000000","INCLINATION":"53.2143","TLE_LINE2":"2 53969  53.2143 187.1040 0001239  87.1059 273.0075 15.08841647 33181","REV_AT_EPOCH":"3318","PERIOD":"95.437","MEAN_MOTION":"15.08841647","SEMIMAJOR_AXIS":"6917.875","ECCENTRICITY":"0.00012390","OBJECT_NAME":"STARLINK-4468","ARG_OF_PERICENTER":"87.1059","PERIAPSIS":"538.883","LAUNCH_DATE":"2022-10-05","EPHEMERIS_TYPE":"0","ELEMENT_SET_NO":"999","EPOCH":"2023-05-10T10:14:55.271040","OBJECT_TYPE":"PAYLOAD","CENTER_NAME":"EARTH","COUNTRY_CODE":"US","APOAPSIS":"540.597","TLE_LINE1":"1 53969U 22125F   23130.42702860  .00002587  00000-0  18054-3 0  9995","FILE":"3904555","REF_FRAME":"TEME","OBJECT_ID":"2022-125F","MEAN_MOTION_DDOT":"0.0000000000000","GP_ID":"231536819","RCS_SIZE":"LARGE","CLASSIFICATION_TYPE":"U","RA_OF_ASC_NODE":"187.1040","TIME_SYSTEM":"UTC","MEAN_MOTION_DOT":"0.00002587","NORAD_CAT_ID":"53969"},{"BSTAR":"0.00019741000000","INCLINATION":"53.2152","REV_AT_EPOCH":"3324","TLE_LINE2":"2 53970  53.2152 182.5373 0001149  97.1228 262.9895 15.10476763 33240","MEAN_MOTION":"15.10476763","PERIOD":"95.334","SITE":"AFWTR","MEAN_ANOMALY":"262.9895","DECAY_DATE":null,"MEAN_ELEMENT_THEORY":"SGP4","LAUNCH_DATE":"2022-10-05","EPHEMERIS_TYPE":"0","ELEMENT_SET_NO":"999","EPOCH":"2023-05-10T09:07:10.407648","SEMIMAJOR_AXIS":"6912.882","OBJECT_NAME":"STARLINK-4567","ECCENTRICITY":"0.00011490","ARG_OF_PERICENTER":"97.1228","PERIAPSIS":"533.953","COUNTRY_CODE":"US","OBJECT_TYPE":"PAYLOAD","CENTER_NAME":"EARTH","TLE_LINE1":"1 53970U 22125G   23130.37998157  .00002995  00000-0  19741-3 0  9994","APOAPSIS":"535.541","FILE":"3904555","RA_OF_ASC_NODE":"182.5373","CLASSIFICATION_TYPE":"U","TIME_SYSTEM":"UTC","NORAD_CAT_ID":"53970","MEAN_MOTION_DOT":"0.00002995","OBJECT_ID":"2022-125G","REF_FRAME":"TEME","GP_ID":"231535814","MEAN_MOTION_DDOT":"0.0000000000000","RCS_SIZE":"LARGE"},{"SEMIMAJOR_AXIS":"6917.849","OBJECT_NAME":"STARLINK-4639","ECCENTRICITY":"0.00008270","ARG_OF_PERICENTER":"102.2710","PERIAPSIS":"539.142","LAUNCH_DATE":"2022-10-05","EPHEMERIS_TYPE":"0","ELEMENT_SET_NO":"999","EPOCH":"2023-05-10T14:55:45.567552","SITE":"AFWTR","MEAN_ELEMENT_THEORY":"SGP4","MEAN_ANOMALY":"257.8375","DECAY_DATE":null,"BSTAR":"0.00010576000000","INCLINATION":"53.2159","TLE_LINE2":"2 53971  53.2159 186.1861 0000827 102.2710 257.8375 15.08850143 33214","REV_AT_EPOCH":"3321","PERIOD":"95.437","MEAN_MOTION":"15.08850143","REF_FRAME":"TEME","OBJECT_ID":"2022-125H","MEAN_MOTION_DDOT":"0.0000000000000","GP_ID":"231568698","RCS_SIZE":"LARGE","CLASSIFICATION_TYPE":"U","RA_OF_ASC_NODE":"186.1861","TIME_SYSTEM":"UTC","MEAN_MOTION_DOT":"0.00001396","NORAD_CAT_ID":"53971","OBJECT_TYPE":"PAYLOAD","CENTER_NAME":"EARTH","COUNTRY_CODE":"US","APOAPSIS":"540.286","TLE_LINE1":"1 53971U 22125H   23130.62205518  .00001396  00000-0  10576-3 0  9996","FILE":"3904830"},{"RA_OF_ASC_NODE":"180.5803","CLASSIFICATION_TYPE":"U","TIME_SYSTEM":"UTC","NORAD_CAT_ID":"53972","MEAN_MOTION_DOT":"-0.00112892","OBJECT_ID":"2022-125J","REF_FRAME":"TEME","GP_ID":"231569448","MEAN_MOTION_DDOT":"0.0000000000000","RCS_SIZE":"LARGE","COUNTRY_CODE":"US","OBJECT_TYPE":"PAYLOAD","CENTER_NAME":"EARTH","TLE_LINE1":"1 53972U 22125J   23130.74973191 -.00112892  00000-0 -69539-2 0  9997","APOAPSIS":"537.171","FILE":"3904830","LAUNCH_DATE":"2022-10-05","EPHEMERIS_TYPE":"0","ELEMENT_SET_NO":"999","EPOCH":"2023-05-10T17:59:36.837024","SEMIMAJOR_AXIS":"6914.210","OBJECT_NAME":"STARLINK-5157","ECCENTRICITY":"0.00015850","ARG_OF_PERICENTER":"70.2532","PERIAPSIS":"534.979","BSTAR":"-0.00695390000000","INCLINATION":"53.2147","REV_AT_EPOCH":"3330","TLE_LINE2":"2 53972  53.2147 180.5803 0001585  70.2532 289.8631 15.10041648 33309","MEAN_MOTION":"15.10041648","PERIOD":"95.362","SITE":"AFWTR","DECAY_DATE":null,"MEAN_ANOMALY":"289.8631","MEAN_ELEMENT_THEORY":"SGP4"},{"CENTER_NAME":"EARTH","OBJECT_TYPE":"PAYLOAD","COUNTRY_CODE":"US","APOAPSIS":"540.604","TLE_LINE1":"1 53973U 22125K   23130.87965319  .00003517  00000-0  23893-3 0  9990","FILE":"3904830","CLASSIFICATION_TYPE":"U","RA_OF_ASC_NODE":"184.9526","TIME_SYSTEM":"UTC","MEAN_MOTION_DOT":"0.00003517","NORAD_CAT_ID":"53973","REF_FRAME":"TEME","OBJECT_ID":"2022-125K","MEAN_MOTION_DDOT":"0.0000000000000","GP_ID":"231570200","RCS_SIZE":"LARGE","BSTAR":"0.00023893000000","INCLINATION":"53.2136","TLE_LINE2":"2 53973  53.2136 184.9526 0001260  92.5499 267.5638 15.08844293 33255","REV_AT_EPOCH":"3325","PERIOD":"95.437","MEAN_MOTION":"15.08844293","SITE":"AFWTR","MEAN_ELEMENT_THEORY":"SGP4","DECAY_DATE":null,"MEAN_ANOMALY":"267.5638","LAUNCH_DATE":"2022-10-05","EPHEMERIS_TYPE":"0","ELEMENT_SET_NO":"999","EPOCH":"2023-05-10T21:06:42.035616","SEMIMAJOR_AXIS":"6917.867","OBJECT_NAME":"STARLINK-5156","ECCENTRICITY":"0.00012600","ARG_OF_PERICENTER":"92.5499","PERIAPSIS":"538.861"}];
